[{"OBJECT_NAME":"STARLINK-30452","OBJECT_ID":"2023-147N","EPOCH":"2026-03-09T22:00:01.999584","MEAN_MOTION":15.21323412,"ECCENTRICITY":0.00019563,"INCLINATION":42.9992,"RA_OF_ASC_NODE":324.1266,"ARG_OF_PERICENTER":270.3007,"MEAN_ANOMALY":327.5066,"EPHEMERIS_TYPE":0,"CLASSIFICATION_TYPE":"U","NORAD_CAT_ID":57925,"ELEMENT_SET_NO":999,"REV_AT_EPOCH":572,"BSTAR":0.082226416,"MEAN_MOTION_DOT":0.02092883,"MEAN_MOTION_DDOT":0},{"OBJECT_NAME":"FLOCK 4G-15","OBJECT_ID":"2025-009BX","EPOCH":"2026-03-09T17:13:37.807680","MEAN_MOTION":15.27266411,"ECCENTRICITY":0.00036988,"INCLINATION":97.4054,"RA_OF_ASC_NODE":151.1927,"ARG_OF_PERICENTER":316.8208,"MEAN_ANOMALY":43.274,"EPHEMERIS_TYPE":0,"CLASSIFICATION_TYPE":"U","NORAD_CAT_ID":62678,"ELEMENT_SET_NO":999,"REV_AT_EPOCH":12135,"BSTAR":0.00047574812,"MEAN_MOTION_DOT":0.00012647,"MEAN_MOTION_DDOT":0}]
